{
  "norad_id": 58676,
  "name": "STARLINK-31066",
  "history": [
    {
      "epoch": "2026-03-28T19:12:56.570400Z",
      "apogee_km": 483.99231055374,
      "perigee_km": 482.049779488033,
      "latitude_deg": 3.7212016623257027e-05,
      "longitude_deg": 8.672232461623357,
      "height_km": 482.81828174038617,
      "semi_major_axis_km": 6861.158045020886,
      "eccentricity": 0.00014156,
      "inclination_deg": 43.0022,
      "raan_deg": 123.1238,
      "arg_perigee_deg": 268.8033,
      "mean_anomaly_deg": 91.2657,
      "mean_motion_rev_day": 15.27589368
    }
  ]
}