{"fetched_at":"2026-03-30T13:17:50Z","count":15418,"tles":[{"name":"STARLINK-31066","line1":"1 58676U 23211K   26087.80065475  .00004057  00000+0  15682-3 0  9999","line2":"2 58676  43.0022 123.1238 0001415 268.8033  91.2657 15.27589368124951","category":"Starlink"}]}